ORBCOMM FM115           
1 41186U 15081H   24271.83403511  .00002783  00000+0  59295-3 0  9998
2 41186  46.9975 206.3439 0001052 295.8420  64.2358 14.61291353469380
ORBCOMM FM108           
1 41187U 15081J   24271.38944165  .00002078  00000+0  49401-3 0  9999
2 41187  47.0043 267.2188 0001731 195.3625 164.7208 14.57062627468453
ORBCOMM FM117           
1 41188U 15081K   24271.69854889  .00002131  00000+0  50575-3 0  9991
2 41188  47.0006 264.6124 0002585 209.8928 150.1810 14.57067628468543
ORBCOMM FM116           
1 41189U 15081L   24271.55124301  .00003398  00000+0  78373-3 0  9998
2 41189  47.0027 355.1430 0003290 276.3221  83.7289 14.57092097467337
